{
  "type": "FeatureCollection",
  "features": [
    {
      "type": "Feature",
      "properties": {
        "norad_id": 41026,
        "name": "YAOGAN-28",
        "group": "resource",
        "lat": -37.76869821062949,
        "lon": 138.40494178881352,
        "alt_km": 505.19437691707935,
        "timestamp": "2025-12-21T03:56:50.511842+00:00",
        "meta_object_name": "YAOGAN-28",
        "meta_object_id": "2015-064A",
        "meta_epoch": "2025-12-20T20:14:16.346400",
        "meta_mean_motion": 15.24473677,
        "meta_eccentricity": 0.0012626,
        "meta_inclination": 97.2812,
        "meta_ra_of_asc_node": 132.4074,
        "meta_arg_of_pericenter": 100.2456,
        "meta_mean_anomaly": 260.0206,
        "meta_ephemeris_type": 0,
        "meta_classification_type": "U",
        "meta_norad_cat_id": 41026,
        "meta_element_set_no": 999,
        "meta_rev_at_epoch": 56348,
        "meta_bstar": 0.00021498,
        "meta_mean_motion_dot": 5.222e-05,
        "meta_mean_motion_ddot": 0,
        "tle_line1": "1 41026U 15064A   25354.84324475  .00005222  00000+0  21498-3 0  9992",
        "tle_line2": "2 41026  97.2812 132.4074 0012626 100.2456 260.0206 15.24473677563488"
      },
      "geometry": {
        "type": "Point",
        "coordinates": [
          138.40494178881352,
          -37.76869821062949
        ]
      }
    },
    {
      "type": "Feature",
      "properties": {
        "norad_id": 41038,
        "name": "YAOGAN-29",
        "group": "resource",
        "lat": -60.22607292136522,
        "lon": -175.90585453697022,
        "alt_km": 627.2486859891824,
        "timestamp": "2025-12-21T03:56:50.511851+00:00",
        "meta_object_name": "YAOGAN-29",
        "meta_object_id": "2015-069A",
        "meta_epoch": "2025-12-20T20:23:06.979776",
        "meta_mean_motion": 14.82891364,
        "meta_eccentricity": 5.21e-05,
        "meta_inclination": 98.021,
        "meta_ra_of_asc_node": 18.0472,
        "meta_arg_of_pericenter": 170.4816,
        "meta_mean_anomaly": 189.6407,
        "meta_ephemeris_type": 0,
        "meta_classification_type": "U",
        "meta_norad_cat_id": 41038,
        "meta_element_set_no": 999,
        "meta_rev_at_epoch": 54419,
        "meta_bstar": 4.5527e-05,
        "meta_mean_motion_dot": 3.15e-06,
        "meta_mean_motion_ddot": 0,
        "tle_line1": "1 41038U 15069A   25354.84938634  .00000315  00000+0  45527-4 0  9996",
        "tle_line2": "2 41038  98.0210  18.0472 0000521 170.4816 189.6407 14.82891364544199"
      },
      "geometry": {
        "type": "Point",
        "coordinates": [
          -175.90585453697022,
          -60.22607292136522
        ]
      }
    },
    {
      "type": "Feature",
      "properties": {
        "norad_id": 41167,
        "name": "KENT RIDGE 1",
        "group": "resource",
        "lat": 1.5528357177844136,
        "lon": 154.44739293508707,
        "alt_km": 500.347761264612,
        "timestamp": "2025-12-21T03:56:50.511860+00:00",
        "meta_object_name": "KENT RIDGE 1",
        "meta_object_id": "2015-077B",
        "meta_epoch": "2025-12-20T18:28:55.721568",
        "meta_mean_motion": 15.21693011,
        "meta_eccentricity": 0.0008539,
        "meta_inclination": 14.9783,
        "meta_ra_of_asc_node": 151.5508,
        "meta_arg_of_pericenter": 244.3199,
        "meta_mean_anomaly": 115.6241,
        "meta_ephemeris_type": 0,
        "meta_classification_type": "U",
        "meta_norad_cat_id": 41167,
        "meta_element_set_no": 999,
        "meta_rev_at_epoch": 55386,
        "meta_bstar": 0.00011405,
        "meta_mean_motion_dot": 3.411e-05,
        "meta_mean_motion_ddot": 0,
        "tle_line1": "1 41167U 15077B   25354.77008937  .00003411  00000+0  11405-3 0  9991",
        "tle_line2": "2 41167  14.9783 151.5508 0008539 244.3199 115.6241 15.21693011553861"
      },
      "geometry": {
        "type": "Point",
        "coordinates": [
          154.44739293508707,
          1.5528357177844136
        ]
      }
    },
    {
      "type": "Feature",
      "properties": {
        "norad_id": 41194,
        "name": "GAOFEN-4",
        "group": "resource",
        "lat": -0.0031335603984883682,
        "lon": -105.0576082399802,
        "alt_km": 35783.71075436426,
        "timestamp": "2025-12-21T03:56:50.511873+00:00",
        "meta_object_name": "GAOFEN-4",
        "meta_object_id": "2015-083A",
        "meta_epoch": "2025-12-19T15:27:26.627616",
        "meta_mean_motion": 1.00273138,
        "meta_eccentricity": 0.0002945,
        "meta_inclination": 0.1878,
        "meta_ra_of_asc_node": 81.7841,
        "meta_arg_of_pericenter": 93.4275,
        "meta_mean_anomaly": 250.8523,
        "meta_ephemeris_type": 0,
        "meta_classification_type": "U",
        "meta_norad_cat_id": 41194,
        "meta_element_set_no": 999,
        "meta_rev_at_epoch": 3672,
        "meta_bstar": 0,
        "meta_mean_motion_dot": -3.11e-06,
        "meta_mean_motion_ddot": 0,
        "tle_line1": "1 41194U 15083A   25353.64405819 -.00000311  00000+0  00000+0 0  9995",
        "tle_line2": "2 41194   0.1878  81.7841 0002945  93.4275 250.8523  1.00273138 36722"
      },
      "geometry": {
        "type": "Point",
        "coordinates": [
          -105.0576082399802,
          -0.0031335603984883682
        ]
      }
    },
    {
      "type": "Feature",
      "properties": {
        "norad_id": 41240,
        "name": "JASON-3",
        "group": "resource",
        "lat": 52.224998208771765,
        "lon": -74.8998058354261,
        "alt_km": 1310.0362526298568,
        "timestamp": "2025-12-21T03:56:50.511883+00:00",
        "meta_object_name": "JASON-3",
        "meta_object_id": "2016-002A",
        "meta_epoch": "2025-12-20T19:52:09.275232",
        "meta_mean_motion": 12.8762689,
        "meta_eccentricity": 0.0007225,
        "meta_inclination": 66.0399,
        "meta_ra_of_asc_node": 140.8196,
        "meta_arg_of_pericenter": 271.2919,
        "meta_mean_anomaly": 88.7272,
        "meta_ephemeris_type": 0,
        "meta_classification_type": "U",
        "meta_norad_cat_id": 41240,
        "meta_element_set_no": 999,
        "meta_rev_at_epoch": 46428,
        "meta_bstar": -1.4453e-05,
        "meta_mean_motion_dot": -6.6e-07,
        "meta_mean_motion_ddot": 0,
        "tle_line1": "1 41240U 16002A   25354.82788513 -.00000066  00000+0 -14453-4 0  9995",
        "tle_line2": "2 41240  66.0399 140.8196 0007225 271.2919  88.7272 12.87626890464289"
      },
      "geometry": {
        "type": "Point",
        "coordinates": [
          -74.8998058354261,
          52.224998208771765
        ]
      }
    },
    {
      "type": "Feature",
      "properties": {
        "norad_id": 41335,
        "name": "SENTINEL-3A",
        "group": "resource",
        "lat": 39.38245726938548,
        "lon": 52.89733582877399,
        "alt_km": 799.2270293047686,
        "timestamp": "2025-12-21T03:56:50.511891+00:00",
        "meta_object_name": "SENTINEL-3A",
        "meta_object_id": "2016-011A",
        "meta_epoch": "2025-12-20T19:20:42.968832",
        "meta_mean_motion": 14.26733526,
        "meta_eccentricity": 9.06e-05,
        "meta_inclination": 98.6304,
        "meta_ra_of_asc_node": 59.7059,
        "meta_arg_of_pericenter": 94.2455,
        "meta_mean_anomaly": 265.8829,
        "meta_ephemeris_type": 0,
        "meta_classification_type": "U",
        "meta_norad_cat_id": 41335,
        "meta_element_set_no": 999,
        "meta_rev_at_epoch": 51262,
        "meta_bstar": 5.6025e-05,
        "meta_mean_motion_dot": 9.2e-07,
        "meta_mean_motion_ddot": 0,
        "tle_line1": "1 41335U 16011A   25354.80605288  .00000092  00000+0  56025-4 0  9993",
        "tle_line2": "2 41335  98.6304  59.7059 0000906  94.2455 265.8829 14.26733526512622"
      },
      "geometry": {
        "type": "Point",
        "coordinates": [
          52.89733582877399,
          39.38245726938548
        ]
      }
    },
    {
      "type": "Feature",
      "properties": {
        "norad_id": 41556,
        "name": "ZIYUAN 3-02 (ZY 3-02)",
        "group": "resource",
        "lat": 44.756054273092005,
        "lon": -103.40079498099523,
        "alt_km": 497.23802028848786,
        "timestamp": "2025-12-21T03:56:50.511900+00:00",
        "meta_object_name": "ZIYUAN 3-02 (ZY 3-02)",
        "meta_object_id": "2016-033A",
        "meta_epoch": "2025-12-20T21:02:29.000256",
        "meta_mean_motion": 15.21160949,
        "meta_eccentricity": 0.0011076,
        "meta_inclination": 97.4037,
        "meta_ra_of_asc_node": 68.9085,
        "meta_arg_of_pericenter": 215.6883,
        "meta_mean_anomaly": 144.3613,
        "meta_ephemeris_type": 0,
        "meta_classification_type": "U",
        "meta_norad_cat_id": 41556,
        "meta_element_set_no": 999,
        "meta_rev_at_epoch": 53087,
        "meta_bstar": 0.00021626,
        "meta_mean_motion_dot": 4.756e-05,
        "meta_mean_motion_ddot": 0,
        "tle_line1": "1 41556U 16033A   25354.87672454  .00004756  00000+0  21626-3 0  9997",
        "tle_line2": "2 41556  97.4037  68.9085 0011076 215.6883 144.3613 15.21160949530870"
      },
      "geometry": {
        "type": "Point",
        "coordinates": [
          -103.40079498099523,
          44.756054273092005
        ]
      }
    }
  ]
}